{
  "type": "FeatureCollection",
  "features": [
    {
      "type": "Feature",
      "properties": {
        "id": "north",
        "name": "North Transit"
      },
      "geometry": {
        "type": "Polygon",
        "coordinates": [
          [
            [-73.98, 40.84],
            [-73.93, 40.84],
            [-73.93, 40.80],
            [-73.98, 40.80],
            [-73.98, 40.84]
          ]
        ]
      }
    },
    {
      "type": "Feature",
      "properties": {
        "id": "central",
        "name": "Central Business"
      },
      "geometry": {
        "type": "Polygon",
        "coordinates": [
          [
            [-74.01, 40.79],
            [-73.95, 40.79],
            [-73.95, 40.74],
            [-74.01, 40.74],
            [-74.01, 40.79]
          ]
        ]
      }
    },
    {
      "type": "Feature",
      "properties": {
        "id": "west",
        "name": "West Industrial"
      },
      "geometry": {
        "type": "Polygon",
        "coordinates": [
          [
            [-74.08, 40.76],
            [-74.02, 40.76],
            [-74.02, 40.71],
            [-74.08, 40.71],
            [-74.08, 40.76]
          ]
        ]
      }
    },
    {
      "type": "Feature",
      "properties": {
        "id": "harbor",
        "name": "Harbor Logistics"
      },
      "geometry": {
        "type": "Polygon",
        "coordinates": [
          [
            [-73.94, 40.72],
            [-73.88, 40.72],
            [-73.88, 40.68],
            [-73.94, 40.68],
            [-73.94, 40.72]
          ]
        ]
      }
    }
  ]
}


